NORAD_CAT_ID,OBJECT_NAME,OBJECT_TYPE,EPOCH,MEAN_MOTION,ECCENTRICITY,INCLINATION,RA_OF_ASC_NODE,ARG_OF_PERICENTER,MEAN_ANOMALY,BSTAR,MEAN_MOTION_DOT,MEAN_MOTION_DDOT,TLE_LINE0,TLE_LINE1,TLE_LINE2,SEMIMAJOR_AXIS,PERIOD,APOGEE,PERIGEE,DECAYED
52365.0,STARLINK-3874,PAYLOAD,2023-09-28 03:33:14,15.08824356,0.0001429,53.2155,240.3848,99.0479,261.0675,-0.00016031,-2.837e-05,0.0,0 STARLINK-3874,1 52365U 22045AL  23271.14808603 -.00002837  00000-0 -16031-3 0  9995,2 52365  53.2155 240.3848 0001429  99.0479 261.0675 15.08824356 81027,6917.928,95.439,540.782,538.805,0.0
52365.0,STARLINK-3874,PAYLOAD,2023-09-28 08:19:24,15.08832448,0.0001354,53.2169,239.4926,97.6595,262.4551,-5.8457e-05,-1.218e-05,0.0,0 STARLINK-3874,1 52365U 22045AL  23271.34680782 -.00001218  00000-0 -58457-4 0  9994,2 52365  53.2169 239.4926 0001354  97.6595 262.4551 15.08832448 81050,6917.903,95.438,540.705,538.832,0.0
52365.0,STARLINK-3874,PAYLOAD,2023-09-29 06:34:47,15.08841933,0.0001322,53.2171,235.331,100.4419,259.6722,0.00019496,2.816e-05,0.0,0 STARLINK-3874,1 52365U 22045AL  23272.27416173  .00002816  00000-0  19496-3 0  9990,2 52365  53.2171 235.3310 0001322 100.4419 259.6722 15.08841933 81190,6917.874,95.437,540.654,538.825,0.0
52365.0,STARLINK-3874,PAYLOAD,2023-09-30 03:14:48,15.08842877,0.0001565,53.2165,231.4652,79.2421,280.8747,0.00034249,5.167e-05,0.0,0 STARLINK-3874,1 52365U 22045AL  23273.13528514  .00005167  00000-0  34249-3 0  9994,2 52365  53.2165 231.4652 0001565  79.2421 280.8747 15.08842877 81320,6917.872,95.437,540.819,538.654,0.0
52365.0,STARLINK-3874,PAYLOAD,2023-09-30 04:50:11,15.0884953,0.0001564,53.2165,231.1667,80.146,279.9708,0.00026656,3.958e-05,0.0,0 STARLINK-3874,1 52365U 22045AL  23273.20152151  .00003958  00000-0  26656-3 0  9991,2 52365  53.2165 231.1667 0001564  80.1460 279.9708 15.08849530 81336,6917.851,95.437,540.798,538.634,0.0
52365.0,STARLINK-3874,PAYLOAD,2023-09-30 06:25:34,15.08856977,0.0001408,53.2165,230.8696,95.3015,264.8138,0.00035059,5.299e-05,0.0,0 STARLINK-3874,1 52365U 22045AL  23273.26775655  .00005299  00000-0  35059-3 0  9994,2 52365  53.2165 230.8696 0001408  95.3015 264.8138 15.08856977 81349,6917.828,95.436,540.668,538.719,0.0
52365.0,STARLINK-3874,PAYLOAD,2023-09-30 14:22:30,15.08846918,0.000159,53.2162,229.3831,79.0753,281.0418,0.00014841,2.075e-05,0.0,0 STARLINK-3874,1 52365U 22045AL  23273.59896144  .00002075  00000-0  14841-3 0  9992,2 52365  53.2162 229.3831 0001590  79.0753 281.0418 15.08846918 81391,6917.859,95.437,540.824,538.624,0.0
52365.0,STARLINK-3874,PAYLOAD,2023-10-01 04:40:58,15.08846893,0.0001526,53.2165,226.7046,84.5244,275.5922,9.1384e-05,1.167e-05,0.0,0 STARLINK-3874,1 52365U 22045AL  23274.19512031  .00001167  00000-0  91384-4 0  9998,2 52365  53.2165 226.7046 0001526  84.5244 275.5922 15.08846893 81488,6917.859,95.437,540.78,538.669,0.0
52365.0,STARLINK-3874,PAYLOAD,2023-10-01 14:13:17,15.08840357,0.0001432,53.2161,224.9221,91.3641,268.7515,1.45e-05,-5.7e-07,0.0,0 STARLINK-3874,1 52365U 22045AL  23274.59256212 -.00000057  00000-0  14500-4 0  9991,2 52365  53.2161 224.9221 0001432  91.3641 268.7515 15.08840357 81540,6917.879,95.438,540.735,538.754,0.0
52365.0,STARLINK-3874,PAYLOAD,2023-10-01 20:34:50,15.08840033,0.0001553,53.2156,223.7351,86.2338,273.8832,-2.3578e-05,-6.63e-06,0.0,0 STARLINK-3874,1 52365U 22045AL  23274.85752443 -.00000663  00000-0 -23578-4 0  9996,2 52365  53.2156 223.7351 0001553  86.2338 273.8832 15.08840033 81589,6917.88,95.438,540.82,538.671,0.0
52365.0,STARLINK-3874,PAYLOAD,2023-10-02 14:04:04,15.0883884,0.0001394,53.2157,220.4619,93.4223,266.6928,0.00011033,1.468e-05,0.0,0 STARLINK-3874,1 52365U 22045AL  23275.58616631  .00001468  00000-0  11033-3 0  9999,2 52365  53.2157 220.4619 0001394  93.4223 266.6928 15.08838840 81698,6917.884,95.438,540.713,538.785,0.0
52365.0,STARLINK-3874,PAYLOAD,2023-10-03 02:47:09,15.08844658,0.0001321,53.2158,218.0818,98.9714,261.1428,0.00026158,3.878e-05,0.0,0 STARLINK-3874,1 52365U 22045AL  23276.11608541  .00003878  00000-0  26158-3 0  9991,2 52365  53.2158 218.0818 0001321  98.9714 261.1428 15.08844658 81776,6917.866,95.437,540.645,538.817,0.0
52365.0,STARLINK-3874,PAYLOAD,2023-10-03 05:57:55,15.08847049,0.0001354,53.2162,217.486,102.6579,257.4565,0.00027676,4.12e-05,0.0,0 STARLINK-3874,1 52365U 22045AL  23276.24856436  .00004120  00000-0  27676-3 0  9990,2 52365  53.2162 217.4860 0001354 102.6579 257.4565 15.08847049 81798,6917.859,95.437,540.661,538.787,0.0
52365.0,STARLINK-3874,PAYLOAD,2023-10-04 04:13:20,15.08843899,0.0001405,53.2159,213.3227,106.2844,253.8303,0.00018426,2.646e-05,0.0,0 STARLINK-3874,1 52365U 22045AL  23277.17592819  .00002646  00000-0  18426-3 0  9999,2 52365  53.2159 213.3227 0001405 106.2844 253.8303 15.08843899 81933,6917.868,95.437,540.705,538.762,0.0
52365.0,STARLINK-3874,PAYLOAD,2023-10-04 05:48:43,15.08844566,0.0001459,53.216,213.0252,108.3456,251.7695,0.0002084,3.031e-05,0.0,0 STARLINK-3874,1 52365U 22045AL  23277.24216811  .00003031  00000-0  20840-3 0  9994,2 52365  53.2160 213.0252 0001459 108.3456 251.7695 15.08844566 81945,6917.866,95.437,540.741,538.722,0.0
52365.0,STARLINK-3874,PAYLOAD,2023-10-05 04:04:06,15.08868693,0.0001153,53.2155,208.8651,101.0631,259.0491,0.00076666,0.00011944,0.0,0 STARLINK-3874,1 52365U 22045AL  23278.16951926  .00011944  00000-0  76666-3 0  9998,2 52365  53.2155 208.8651 0001153 101.0631 259.0491 15.08868693 82088,6917.793,95.436,540.455,538.86,0.0
52365.0,STARLINK-3874,PAYLOAD,2023-10-05 12:01:02,15.08856684,0.0001251,53.2165,207.3789,90.7641,269.3494,0.00044562,6.814e-05,0.0,0 STARLINK-3874,1 52365U 22045AL  23278.50072019  .00006814  00000-0  44562-3 0  9993,2 52365  53.2165 207.3789 0001251  90.7641 269.3494 15.08856684 82139,6917.829,95.436,540.56,538.829,0.0
52365.0,STARLINK-3874,PAYLOAD,2023-10-06 03:54:53,15.08845781,0.0001326,53.2153,204.4024,96.373,263.7413,0.0001168,1.572e-05,0.0,0 STARLINK-3874,1 52365U 22045AL  23279.16312321  .00001572  00000-0  11680-3 0  9990,2 52365  53.2153 204.4024 0001326  96.3730 263.7413 15.08845781 82236,6917.863,95.437,540.645,538.81,0.0
52365.0,STARLINK-3874,PAYLOAD,2023-10-06 11:51:49,15.0883991,0.0001542,53.2158,202.918,78.1906,281.9259,2.0651e-05,4.1e-07,0.0,0 STARLINK-3874,1 52365U 22045AL  23279.49432713  .00000041  00000-0  20651-4 0  9993,2 52365  53.2158 202.9180 0001542  78.1906 281.9259 15.08839910 82282,6917.881,95.438,540.812,538.679,0.0
52365.0,STARLINK-3874,PAYLOAD,2023-10-07 00:34:55,15.08831831,0.0001753,53.2173,200.5427,92.3326,267.7867,-0.00010325,-1.931e-05,0.0,0 STARLINK-3874,1 52365U 22045AL  23280.02425469 -.00001931  00000-0 -10325-3 0  9991,2 52365  53.2173 200.5427 0001753  92.3326 267.7867 15.08831831 82365,6917.905,95.438,540.983,538.558,0.0
52365.0,STARLINK-3874,PAYLOAD,2023-10-07 02:10:18,15.0884087,0.0001213,53.2152,200.2421,90.6666,269.4465,3.5268e-05,2.73e-06,0.0,0 STARLINK-3874,1 52365U 22045AL  23280.09048935  .00000273  00000-0  35268-4 0  9997,2 52365  53.2152 200.2421 0001213  90.6666 269.4465 15.08840870 82379,6917.878,95.437,540.582,538.904,0.0
52365.0,STARLINK-3874,PAYLOAD,2023-10-08 03:36:28,15.08854325,0.0001542,53.2161,195.4827,88.8812,271.2357,0.00051545,7.928e-05,0.0,0 STARLINK-3874,1 52365U 22045AL  23281.15033005  .00007928  00000-0  51545-3 0  9996,2 52365  53.2161 195.4827 0001542  88.8812 271.2357 15.08854325 82530,6917.837,95.437,540.768,538.635,0.0
52365.0,STARLINK-3874,PAYLOAD,2023-10-08 11:33:24,15.08837684,0.0002091,53.2162,193.9993,79.7708,280.352,0.00012393,1.685e-05,0.0,0 STARLINK-3874,1 52365U 22045AL  23281.48153805  .00001685  00000-0  12393-3 0  9995,2 52365  53.2162 193.9993 0002091  79.7708 280.3520 15.08837684 82588,6917.887,95.438,541.199,538.306,0.0
52365.0,STARLINK-3874,PAYLOAD,2023-10-09 01:51:52,15.08852068,0.0001654,53.2159,191.3203,77.2037,282.914,0.00028912,4.318e-05,0.0,0 STARLINK-3874,1 52365U 22045AL  23282.07769076  .00004318  00000-0  28912-3 0  9994,2 52365  53.2159 191.3203 0001654  77.2037 282.9140 15.08852068 82671,6917.844,95.437,540.853,538.564,0.0
52365.0,STARLINK-3874,PAYLOAD,2023-10-09 11:24:11,15.0884506,0.0001538,53.2153,189.5366,91.0343,269.0826,0.00013885,1.923e-05,0.0,0 STARLINK-3874,1 52365U 22045AL  23282.47513202  .00001923  00000-0  13885-3 0  9998,2 52365  53.2153 189.5366 0001538  91.0343 269.0826 15.08845060 82737,6917.865,95.437,540.794,538.666,0.0
52365.0,STARLINK-3874,PAYLOAD,2023-10-10 11:14:59,15.08831469,0.0001863,53.2161,185.0769,86.6497,273.4708,1.8576e-07,-2.85e-06,0.0,0 STARLINK-3874,1 52365U 22045AL  23283.46874080 -.00000285  00000-0  18576-6 0  9998,2 52365  53.2161 185.0769 0001863  86.6497 273.4708 15.08831469 82887,6917.906,95.438,541.06,538.483,0.0
52365.0,STARLINK-3874,PAYLOAD,2023-10-10 20:47:18,15.08834103,0.0001514,53.2162,183.2929,86.2459,273.8706,7.4974e-05,9.05e-06,0.0,0 STARLINK-3874,1 52365U 22045AL  23283.86618081  .00000905  00000-0  74974-4 0  9999,2 52365  53.2162 183.2929 0001514  86.2459 273.8706 15.08834103 82940,6917.898,95.438,540.811,538.716,0.0
52365.0,STARLINK-3874,PAYLOAD,2023-10-11 03:08:50,15.08842065,0.0001431,53.2162,182.1002,103.9724,256.1427,0.00031392,4.712e-05,0.0,0 STARLINK-3874,1 52365U 22045AL  23284.13113760  .00004712  00000-0  31392-3 0  9990,2 52365  53.2162 182.1002 0001431 103.9724 256.1427 15.08842065 82984,6917.874,95.437,540.729,538.749,0.0
52365.0,STARLINK-3874,PAYLOAD,2023-10-11 20:38:05,15.08839216,0.0001703,53.2172,178.8295,98.7728,261.3457,0.00027714,4.125e-05,0.0,0 STARLINK-3874,1 52365U 22045AL  23284.85978394  .00004125  00000-0  27714-3 0  9992,2 52365  53.2172 178.8295 0001703  98.7728 261.3457 15.08839216 83096,6917.883,95.438,540.926,538.57,0.0
52365.0,STARLINK-3874,PAYLOAD,2023-10-12 02:59:37,15.08849698,0.0001527,53.2166,177.641,88.4845,271.6322,0.00049429,7.589e-05,0.0,0 STARLINK-3874,1 52365U 22045AL  23285.12474167  .00007589  00000-0  49429-3 0  9996,2 52365  53.2166 177.6410 0001527  88.4845 271.6322 15.08849698 83130,6917.851,95.437,540.772,538.659,0.0
